{"type": "FeatureCollection", "features": [ {"type": "Feature", "properties": {"norad_id": 17070, "name": "POLAR BEAR", "group": "nnss", "lat": 54.13948301140633, "lon": -175.384049419909, "alt_km": 974.507573689245, "timestamp": "2025-12-04T21:36:16.141612+00:00", "meta": {"OBJECT_NAME": "POLAR BEAR", "OBJECT_ID": "1986-088A", "EPOCH": "2025-12-04T14:38:26.435616", "MEAN_MOTION": 13.75248292, "ECCENTRICITY": 0.00403977, "INCLINATION": 89.618, "RA_OF_ASC_NODE": 184.0988, "ARG_OF_PERICENTER": 142.9088, "MEAN_ANOMALY": 276.0886, "EPHEMERIS_TYPE": 0, "CLASSIFICATION_TYPE": "U", "NORAD_CAT_ID": 17070, "ELEMENT_SET_NO": 999, "REV_AT_EPOCH": 95867, "BSTAR": 0.00016782214, "MEAN_MOTION_DOT": 1.73e-06, "MEAN_MOTION_DDOT": 0}, "tle": {"line1": "1 17070U 86088A   25338.61002819  .00000173  00000+0  16782-3 0  9990", "line2": "2 17070  89.6180 184.0988 0040397 142.9088 276.0886 13.75248292958677"}}, "geometry": {"type": "Point", "coordinates": [-175.384049419909, 54.13948301140633]}}, {"type": "Feature", "properties": {"norad_id": 18361, "name": "OSCAR 27", "group": "nnss", "lat": 86.86066098038192, "lon": 72.13596010921042, "alt_km": 1155.281757506059, "timestamp": "2025-12-04T21:36:16.141622+00:00", "meta": {"OBJECT_NAME": "OSCAR 27", "OBJECT_ID": "1987-080A", "EPOCH": "2025-12-04T14:01:27.785568", "MEAN_MOTION": 13.44904042, "ECCENTRICITY": 0.01024377, "INCLINATION": 90.3742, "RA_OF_ASC_NODE": 78.9672, "ARG_OF_PERICENTER": 247.4847, "MEAN_ANOMALY": 111.5433, "EPHEMERIS_TYPE": 0, "CLASSIFICATION_TYPE": "U", "NORAD_CAT_ID": 18361, "ELEMENT_SET_NO": 999, "REV_AT_EPOCH": 87447, "BSTAR": 0.0002684558, "MEAN_MOTION_DOT": 1.7e-06, "MEAN_MOTION_DDOT": 0}, "tle": {"line1": "1 18361U 87080A   25338.58434937  .00000170  00000+0  26846-3 0  9992", "line2": "2 18361  90.3742  78.9672 0102437 247.4847 111.5433 13.44904042874477"}}, "geometry": {"type": "Point", "coordinates": [72.13596010921042, 86.86066098038192]}}, {"type": "Feature", "properties": {"norad_id": 18362, "name": "OSCAR 29", "group": "nnss", "lat": 67.99924788144523, "lon": -99.63274833645434, "alt_km": 1158.010803110018, "timestamp": "2025-12-04T21:36:16.141632+00:00", "meta": {"OBJECT_NAME": "OSCAR 29", "OBJECT_ID": "1987-080B", "EPOCH": "2025-12-04T07:01:08.237280", "MEAN_MOTION": 13.44445999, "ECCENTRICITY": 0.01037142, "INCLINATION": 90.3755, "RA_OF_ASC_NODE": 79.4145, "ARG_OF_PERICENTER": 271.7522, "MEAN_ANOMALY": 140.9753, "EPHEMERIS_TYPE": 0, "CLASSIFICATION_TYPE": "U", "NORAD_CAT_ID": 18362, "ELEMENT_SET_NO": 999, "REV_AT_EPOCH": 87396, "BSTAR": 0.0002287377, "MEAN_MOTION_DOT": 1.45e-06, "MEAN_MOTION_DDOT": 0}, "tle": {"line1": "1 18362U 87080B   25338.29245645  .00000145  00000+0  22874-3 0  9996", "line2": "2 18362  90.3755  79.4145 0103714 271.7522 140.9753 13.44445999873967"}}, "geometry": {"type": "Point", "coordinates": [-99.63274833645434, 67.99924788144523]}}, {"type": "Feature", "properties": {"norad_id": 19070, "name": "OSCAR 23", "group": "nnss", "lat": -1.8855855447864585, "lon": 16.16009760279463, "alt_km": 1288.3277811136168, "timestamp": "2025-12-04T21:36:16.141642+00:00", "meta": {"OBJECT_NAME": "OSCAR 23", "OBJECT_ID": "1988-033A", "EPOCH": "2025-12-04T15:00:55.916352", "MEAN_MOTION": 13.27785269, "ECCENTRICITY": 0.01888538, "INCLINATION": 90.3222, "RA_OF_ASC_NODE": 16.1409, "ARG_OF_PERICENTER": 202.5141, "MEAN_ANOMALY": 283.2953, "EPHEMERIS_TYPE": 0, "CLASSIFICATION_TYPE": "U", "NORAD_CAT_ID": 19070, "ELEMENT_SET_NO": 999, "REV_AT_EPOCH": 82145, "BSTAR": 0.00021746024, "MEAN_MOTION_DOT": 1.16e-06, "MEAN_MOTION_DDOT": 0}, "tle": {"line1": "1 19070U 88033A   25338.62564718  .00000116  00000+0  21746-3 0  9999", "line2": "2 19070  90.3222  16.1409 0188853 202.5141 283.2953 13.27785269821458"}}, "geometry": {"type": "Point", "coordinates": [16.16009760279463, -1.8855855447864585]}}, {"type": "Feature", "properties": {"norad_id": 19071, "name": "OSCAR 32", "group": "nnss", "lat": 79.16269937241593, "lon": -162.03270951612976, "alt_km": 1139.1283284058982, "timestamp": "2025-12-04T21:36:16.141653+00:00", "meta": {"OBJECT_NAME": "OSCAR 32", "OBJECT_ID": "1988-033B", "EPOCH": "2025-12-04T16:15:19.253088", "MEAN_MOTION": 13.27952429, "ECCENTRICITY": 0.01876757, "INCLINATION": 90.3226, "RA_OF_ASC_NODE": 16.2739, "ARG_OF_PERICENTER": 189.2128, "MEAN_ANOMALY": 288.8587, "EPHEMERIS_TYPE": 0, "CLASSIFICATION_TYPE": "U", "NORAD_CAT_ID": 19071, "ELEMENT_SET_NO": 999, "REV_AT_EPOCH": 82158, "BSTAR": 0.0002479224, "MEAN_MOTION_DOT": 1.32e-06, "MEAN_MOTION_DDOT": 0}, "tle": {"line1": "1 19071U 88033B   25338.67730617  .00000132  00000+0  24792-3 0  9990", "line2": "2 19071  90.3226  16.2739 0187675 189.2128 288.8587 13.27952429821589"}}, "geometry": {"type": "Point", "coordinates": [-162.03270951612976, 79.16269937241593]}}, {"type": "Feature", "properties": {"norad_id": 19223, "name": "NOVA 2", "group": "nnss", "lat": 81.84132205857414, "lon": 78.37064838676694, "alt_km": 1149.1427955745658, "timestamp": "2025-12-04T21:36:16.141663+00:00", "meta": {"OBJECT_NAME": "NOVA 2", "OBJECT_ID": "1988-052A", "EPOCH": "2025-12-04T13:59:25.514880", "MEAN_MOTION": 13.22934532, "ECCENTRICITY": 0.00312386, "INCLINATION": 89.9873, "RA_OF_ASC_NODE": 78.2824, "ARG_OF_PERICENTER": 38.8591, "MEAN_ANOMALY": 332.6878, "EPHEMERIS_TYPE": 0, "CLASSIFICATION_TYPE": "U", "NORAD_CAT_ID": 19223, "ELEMENT_SET_NO": 999, "REV_AT_EPOCH": 80840, "BSTAR": 0.0001904625, "MEAN_MOTION_DOT": 8.9e-07, "MEAN_MOTION_DDOT": 0}, "tle": {"line1": "1 19223U 88052A   25338.58293420  .00000089  00000+0  19046-3 0  9993", "line2": "2 19223  89.9873  78.2824 0031238  38.8591 332.6878 13.22934532808406"}}, "geometry": {"type": "Point", "coordinates": [78.37064838676694, 81.84132205857414]}}, {"type": "Feature", "properties": {"norad_id": 19419, "name": "OSCAR 25", "group": "nnss", "lat": -36.26789216522277, "lon": 20.24412520630389, "alt_km": 1065.1984002698746, "timestamp": "2025-12-04T21:36:16.141673+00:00", "meta": {"OBJECT_NAME": "OSCAR 25", "OBJECT_ID": "1988-074A", "EPOCH": "2025-12-04T15:13:32.719008", "MEAN_MOTION": 13.42621085, "ECCENTRICITY": 0.00942358, "INCLINATION": 90.0354, "RA_OF_ASC_NODE": 20.2172, "ARG_OF_PERICENTER": 269.3932, "MEAN_ANOMALY": 209.6802, "EPHEMERIS_TYPE": 0, "CLASSIFICATION_TYPE": "U", "NORAD_CAT_ID": 19419, "ELEMENT_SET_NO": 999, "REV_AT_EPOCH": 82531, "BSTAR": 0.00029662443, "MEAN_MOTION_DOT": 1.81e-06, "MEAN_MOTION_DDOT": 0}, "tle": {"line1": "1 19419U 88074A   25338.63440647  .00000181  00000+0  29662-3 0  9993", "line2": "2 19419  90.0354  20.2172 0094235 269.3932 209.6802 13.42621085825316"}}, "geometry": {"type": "Point", "coordinates": [20.24412520630389, -36.26789216522277]}}, {"type": "Feature", "properties": {"norad_id": 19420, "name": "OSCAR 31", "group": "nnss", "lat": -27.038409206101242, "lon": -159.4521498809924, "alt_km": 1066.1057107733714, "timestamp": "2025-12-04T21:36:16.141683+00:00", "meta": {"OBJECT_NAME": "OSCAR 31", "OBJECT_ID": "1988-074B", "EPOCH": "2025-12-04T15:46:49.752192", "MEAN_MOTION": 13.42582718, "ECCENTRICITY": 0.00924833, "INCLINATION": 90.0371, "RA_OF_ASC_NODE": 20.5659, "ARG_OF_PERICENTER": 263.4336, "MEAN_ANOMALY": 212.1839, "EPHEMERIS_TYPE": 0, "CLASSIFICATION_TYPE": "U", "NORAD_CAT_ID": 19420, "ELEMENT_SET_NO": 999, "REV_AT_EPOCH": 82542, "BSTAR": 0.0002545295, "MEAN_MOTION_DOT": 1.56e-06, "MEAN_MOTION_DDOT": 0}, "tle": {"line1": "1 19420U 88074B   25338.65752028  .00000156  00000+0  25453-3 0  9992", "line2": "2 19420  90.0371  20.5659 0092483 263.4336 212.1839 13.42582718825426"}}, "geometry": {"type": "Point", "coordinates": [-159.4521498809924, -27.038409206101242]}}]}